{"type": "FeatureCollection", "features": [ {"type": "Feature", "properties": {"norad_id": 64902, "name": "CO3D 2", "group": "resource", "lat": 78.77663374989537, "lon": 34.72329481110572, "alt_km": 497.39941335753065, "timestamp": "2025-12-25T19:00:39.006276+00:00", "meta": {"OBJECT_NAME": "CO3D 2", "OBJECT_ID": "2025-156D", "EPOCH": "2025-12-25T06:00:55.338336", "MEAN_MOTION": 15.2019147, "ECCENTRICITY": 8.187e-05, "INCLINATION": 97.4337, "RA_OF_ASC_NODE": 75.3372, "ARG_OF_PERICENTER": 60.991, "MEAN_ANOMALY": 299.1407, "EPHEMERIS_TYPE": 0, "CLASSIFICATION_TYPE": "U", "NORAD_CAT_ID": 64902, "ELEMENT_SET_NO": 999, "REV_AT_EPOCH": 2310, "BSTAR": 0.00028750247, "MEAN_MOTION_DOT": 6.159e-05, "MEAN_MOTION_DDOT": 0}, "tle": {"line1": "1 64902U 25156D   25359.25064049  .00006159  00000+0  28750-3 0  9999", "line2": "2 64902  97.4337  75.3372 0000818  60.9910 299.1407 15.20191470 23103"}}, "geometry": {"type": "Point", "coordinates": [34.72329481110572, 78.77663374989537]}}, {"type": "Feature", "properties": {"norad_id": 64903, "name": "CO3D 1", "group": "resource", "lat": 78.12926691943744, "lon": 37.46835755070141, "alt_km": 497.36800929244237, "timestamp": "2025-12-25T19:00:39.006286+00:00", "meta": {"OBJECT_NAME": "CO3D 1", "OBJECT_ID": "2025-156E", "EPOCH": "2025-12-25T06:01:08.705280", "MEAN_MOTION": 15.20193155, "ECCENTRICITY": 8.772e-05, "INCLINATION": 97.434, "RA_OF_ASC_NODE": 75.3372, "ARG_OF_PERICENTER": 70.8743, "MEAN_ANOMALY": 289.2587, "EPHEMERIS_TYPE": 0, "CLASSIFICATION_TYPE": "U", "NORAD_CAT_ID": 64903, "ELEMENT_SET_NO": 999, "REV_AT_EPOCH": 2310, "BSTAR": 0.00010066407, "MEAN_MOTION_DOT": 2.112e-05, "MEAN_MOTION_DDOT": 0}, "tle": {"line1": "1 64903U 25156E   25359.25079520  .00002112  00000+0  10066-3 0  9996", "line2": "2 64903  97.4340  75.3372 0000877  70.8743 289.2587 15.20193155 23108"}}, "geometry": {"type": "Point", "coordinates": [37.46835755070141, 78.12926691943744]}}, {"type": "Feature", "properties": {"norad_id": 66514, "name": "SENTINEL-6B", "group": "resource", "lat": 17.590133422884957, "lon": -52.77921035356375, "alt_km": 1339.0910631044499, "timestamp": "2025-12-25T19:00:39.006296+00:00", "meta": {"OBJECT_NAME": "SENTINEL-6B", "OBJECT_ID": "2025-264A", "EPOCH": "2025-12-24T15:56:27.687840", "MEAN_MOTION": 12.80929573, "ECCENTRICITY": 0.00078982, "INCLINATION": 66.0398, "RA_OF_ASC_NODE": 137.6666, "ARG_OF_PERICENTER": 269.9778, "MEAN_ANOMALY": 90.0333, "EPHEMERIS_TYPE": 0, "CLASSIFICATION_TYPE": "U", "NORAD_CAT_ID": 66514, "ELEMENT_SET_NO": 999, "REV_AT_EPOCH": 481, "BSTAR": 6.3146286e-05, "MEAN_MOTION_DOT": -4.6e-07, "MEAN_MOTION_DDOT": 0}, "tle": {"line1": "1 66514U 25264A   25358.66420935 -.00000046  00000+0  63146-4 0  9993", "line2": "2 66514  66.0398 137.6666 0007898 269.9778  90.0333 12.80929573  4818"}}, "geometry": {"type": "Point", "coordinates": [-52.77921035356375, 17.590133422884957]}}]}